FLOCK 4BE-3             
1 60561U 24149CX  26199.16490569  .00010182  00000+0  23716-3 0  9998
2 60561  97.3687 283.3925 0005239 160.2670 199.8781 15.42455689107115
FLOCK 4BE-19            
1 60563U 24149CZ  26199.14811327  .00014551  00000+0  30246-3 0  9997
2 60563  97.3736 285.0755 0006069 166.2359 193.9057 15.45740625107205
FLOCK 4G-8              
1 62613U 25009E   26199.15036709  .00005105  00000+0  17690-3 0  9998
2 62613  97.3999 281.0354 0004342 182.0780 178.0444 15.30275313 83658
FLOCK 4G-13             
1 62621U 25009N   26199.19891081  .00051977  00000+0  94922-3 0  9994
2 62621  97.3942 283.1252 0006724 190.3295 169.7819 15.49221723 83798
FLOCK 4G-9              
1 62622U 25009P   26199.17644216  .00004846  00000+0  17722-3 0  9995
2 62622  97.3952 279.9065 0004373 193.4570 166.6554 15.28538733 83592
FLOCK 4G-7              
1 62624U 25009R   26199.13518171  .00005137  00000+0  18004-3 0  9991
2 62624  97.3936 280.2876 0002882 173.1390 186.9890 15.29908154 83631
FLOCK 4G-12             
1 62625U 25009S   26199.19604605  .00005931  00000+0  20803-3 0  9998
2 62625  97.4015 280.9004 0004481 178.5697 181.5557 15.29809854 83646
FLOCK 4G-11             
1 62629U 25009W   26199.18069461  .00005662  00000+0  19808-3 0  9990
2 62629  97.3916 280.4398 0002991 175.0874 185.0397 15.29917771 83653
FLOCK 4G-26             
1 62633U 25009AA  26199.19389695  .00006534  00000+0  22682-3 0  9993
2 62633  97.4010 281.0604 0003947 168.6574 191.4756 15.30112633 83654
FLOCK 4G-28             
1 62634U 25009AB  26199.14942317  .00004705  00000+0  13960-3 0  9992
2 62634  97.4022 283.8249 0002381 155.9084 204.2271 15.35310111 83830
FLOCK 4G-24             
1 62637U 25009AE  26199.20458917  .00005478  00000+0  18890-3 0  9995
2 62637  97.4017 281.3776 0003965 157.3072 202.8345 15.30401957 83679
FLOCK 4G-3              
1 62639U 25009AG  26199.13333692  .00005739  00000+0  20081-3 0  9996
2 62639  97.4019 281.0125 0003549 161.8952 198.2416 15.29909875 83636
FLOCK 4G-27             
1 62641U 25009AJ  26199.15304208  .00005325  00000+0  18689-3 0  9994
2 62641  97.3928 280.3764 0002823 162.1349 197.9991 15.29841359 83632
FLOCK 4G-29             
1 62642U 25009AK  26199.13828969  .00004510  00000+0  15848-3 0  9997
2 62642  97.4014 280.9768 0003717 158.3870 201.7528 15.29890233 83634
FLOCK 4G-22             
1 62645U 25009AN  26199.15691496  .00005138  00000+0  18065-3 0  9996
2 62645  97.3999 281.0291 0003231 154.9335 205.2063 15.29805391 83656
FLOCK 4G-25             
1 62646U 25009AP  26198.47620081  .00005613  00000+0  19569-3 0  9991
2 62646  97.4011 280.4309 0002652 157.5350 202.6007 15.30036582 83556
