{"fetched_at":"2026-07-18T17:29:33.240Z","source":"https://celestrak.org/NORAD/elements/gp.php?GROUP=planet&FORMAT=JSON","constellation":"superdove","records":[{"OBJECT_NAME":"FLOCK 4BE-3","OBJECT_ID":"2024-149CX","EPOCH":"2026-07-18T03:57:27.851616","CLASSIFICATION_TYPE":"U","MEAN_MOTION":15.42455689,"ECCENTRICITY":0.00052397,"INCLINATION":97.3687,"RA_OF_ASC_NODE":283.3925,"ARG_OF_PERICENTER":160.267,"MEAN_ANOMALY":199.8781,"EPHEMERIS_TYPE":0,"NORAD_CAT_ID":60561,"ELEMENT_SET_NO":999,"REV_AT_EPOCH":10711,"BSTAR":0.00023715848,"MEAN_MOTION_DOT":0.00010182,"MEAN_MOTION_DDOT":0},{"OBJECT_NAME":"FLOCK 4BE-19","OBJECT_ID":"2024-149CZ","EPOCH":"2026-07-18T03:33:16.986528","CLASSIFICATION_TYPE":"U","MEAN_MOTION":15.45740625,"ECCENTRICITY":0.00060694,"INCLINATION":97.3736,"RA_OF_ASC_NODE":285.0755,"ARG_OF_PERICENTER":166.2359,"MEAN_ANOMALY":193.9057,"EPHEMERIS_TYPE":0,"NORAD_CAT_ID":60563,"ELEMENT_SET_NO":999,"REV_AT_EPOCH":10720,"BSTAR":0.00030246235,"MEAN_MOTION_DOT":0.00014551,"MEAN_MOTION_DDOT":0},{"OBJECT_NAME":"FLOCK 4G-8","OBJECT_ID":"2025-009E","EPOCH":"2026-07-18T03:36:31.716576","CLASSIFICATION_TYPE":"U","MEAN_MOTION":15.30275313,"ECCENTRICITY":0.00043421,"INCLINATION":97.3999,"RA_OF_ASC_NODE":281.0354,"ARG_OF_PERICENTER":182.078,"MEAN_ANOMALY":178.0444,"EPHEMERIS_TYPE":0,"NORAD_CAT_ID":62613,"ELEMENT_SET_NO":999,"REV_AT_EPOCH":8365,"BSTAR":0.00017689699,"MEAN_MOTION_DOT":0.00005105,"MEAN_MOTION_DDOT":0},{"OBJECT_NAME":"FLOCK 4G-13","OBJECT_ID":"2025-009N","EPOCH":"2026-07-18T04:46:25.893984","CLASSIFICATION_TYPE":"U","MEAN_MOTION":15.49221723,"ECCENTRICITY":0.00067249,"INCLINATION":97.3942,"RA_OF_ASC_NODE":283.1252,"ARG_OF_PERICENTER":190.3295,"MEAN_ANOMALY":169.7819,"EPHEMERIS_TYPE":0,"NORAD_CAT_ID":62621,"ELEMENT_SET_NO":999,"REV_AT_EPOCH":8379,"BSTAR":0.00094922464,"MEAN_MOTION_DOT":0.00051977,"MEAN_MOTION_DDOT":0},{"OBJECT_NAME":"FLOCK 4G-9","OBJECT_ID":"2025-009P","EPOCH":"2026-07-18T04:14:04.602624","CLASSIFICATION_TYPE":"U","MEAN_MOTION":15.28538733,"ECCENTRICITY":0.00043732,"INCLINATION":97.3952,"RA_OF_ASC_NODE":279.9065,"ARG_OF_PERICENTER":193.457,"MEAN_ANOMALY":166.6554,"EPHEMERIS_TYPE":0,"NORAD_CAT_ID":62622,"ELEMENT_SET_NO":999,"REV_AT_EPOCH":8359,"BSTAR":0.00017721751,"MEAN_MOTION_DOT":0.00004846,"MEAN_MOTION_DDOT":0},{"OBJECT_NAME":"FLOCK 4G-7","OBJECT_ID":"2025-009R","EPOCH":"2026-07-18T03:14:39.699744","CLASSIFICATION_TYPE":"U","MEAN_MOTION":15.29908154,"ECCENTRICITY":0.00028826,"INCLINATION":97.3936,"RA_OF_ASC_NODE":280.2876,"ARG_OF_PERICENTER":173.139,"MEAN_ANOMALY":186.989,"EPHEMERIS_TYPE":0,"NORAD_CAT_ID":62624,"ELEMENT_SET_NO":999,"REV_AT_EPOCH":8363,"BSTAR":0.00018003566,"MEAN_MOTION_DOT":0.00005137,"MEAN_MOTION_DDOT":0},{"OBJECT_NAME":"FLOCK 4G-12","OBJECT_ID":"2025-009S","EPOCH":"2026-07-18T04:42:18.378720","CLASSIFICATION_TYPE":"U","MEAN_MOTION":15.29809854,"ECCENTRICITY":0.00044812,"INCLINATION":97.4015,"RA_OF_ASC_NODE":280.9004,"ARG_OF_PERICENTER":178.5697,"MEAN_ANOMALY":181.5557,"EPHEMERIS_TYPE":0,"NORAD_CAT_ID":62625,"ELEMENT_SET_NO":999,"REV_AT_EPOCH":8364,"BSTAR":0.00020802925,"MEAN_MOTION_DOT":0.00005931,"MEAN_MOTION_DDOT":0},{"OBJECT_NAME":"FLOCK 4G-11","OBJECT_ID":"2025-009W","EPOCH":"2026-07-18T04:20:12.014304","CLASSIFICATION_TYPE":"U","MEAN_MOTION":15.29917771,"ECCENTRICITY":0.00029911,"INCLINATION":97.3916,"RA_OF_ASC_NODE":280.4398,"ARG_OF_PERICENTER":175.0874,"MEAN_ANOMALY":185.0397,"EPHEMERIS_TYPE":0,"NORAD_CAT_ID":62629,"ELEMENT_SET_NO":999,"REV_AT_EPOCH":8365,"BSTAR":0.00019808322,"MEAN_MOTION_DOT":0.00005662,"MEAN_MOTION_DDOT":0},{"OBJECT_NAME":"FLOCK 4G-26","OBJECT_ID":"2025-009AA","EPOCH":"2026-07-18T04:39:12.696480","CLASSIFICATION_TYPE":"U","MEAN_MOTION":15.30112633,"ECCENTRICITY":0.0003947,"INCLINATION":97.401,"RA_OF_ASC_NODE":281.0604,"ARG_OF_PERICENTER":168.6574,"MEAN_ANOMALY":191.4756,"EPHEMERIS_TYPE":0,"NORAD_CAT_ID":62633,"ELEMENT_SET_NO":999,"REV_AT_EPOCH":8365,"BSTAR":0.00022681617,"MEAN_MOTION_DOT":0.00006534,"MEAN_MOTION_DDOT":0},{"OBJECT_NAME":"FLOCK 4G-28","OBJECT_ID":"2025-009AB","EPOCH":"2026-07-18T03:35:10.161888","CLASSIFICATION_TYPE":"U","MEAN_MOTION":15.35310111,"ECCENTRICITY":0.00023819,"INCLINATION":97.4022,"RA_OF_ASC_NODE":283.8249,"ARG_OF_PERICENTER":155.9084,"MEAN_ANOMALY":204.2271,"EPHEMERIS_TYPE":0,"NORAD_CAT_ID":62634,"ELEMENT_SET_NO":999,"REV_AT_EPOCH":8383,"BSTAR":0.00013960454,"MEAN_MOTION_DOT":0.00004705,"MEAN_MOTION_DDOT":0},{"OBJECT_NAME":"FLOCK 4G-24","OBJECT_ID":"2025-009AE","EPOCH":"2026-07-18T04:54:36.504288","CLASSIFICATION_TYPE":"U","MEAN_MOTION":15.30401957,"ECCENTRICITY":0.00039659,"INCLINATION":97.4017,"RA_OF_ASC_NODE":281.3776,"ARG_OF_PERICENTER":157.3072,"MEAN_ANOMALY":202.8345,"EPHEMERIS_TYPE":0,"NORAD_CAT_ID":62637,"ELEMENT_SET_NO":999,"REV_AT_EPOCH":8367,"BSTAR":0.00018890331,"MEAN_MOTION_DOT":0.00005478,"MEAN_MOTION_DDOT":0},{"OBJECT_NAME":"FLOCK 4G-3","OBJECT_ID":"2025-009AG","EPOCH":"2026-07-18T03:12:00.309888","CLASSIFICATION_TYPE":"U","MEAN_MOTION":15.29909875,"ECCENTRICITY":0.00035494,"INCLINATION":97.4019,"RA_OF_ASC_NODE":281.0125,"ARG_OF_PERICENTER":161.8952,"MEAN_ANOMALY":198.2416,"EPHEMERIS_TYPE":0,"NORAD_CAT_ID":62639,"ELEMENT_SET_NO":999,"REV_AT_EPOCH":8363,"BSTAR":0.00020080679,"MEAN_MOTION_DOT":0.00005739,"MEAN_MOTION_DDOT":0},{"OBJECT_NAME":"FLOCK 4G-27","OBJECT_ID":"2025-009AJ","EPOCH":"2026-07-18T03:40:22.835712","CLASSIFICATION_TYPE":"U","MEAN_MOTION":15.29841359,"ECCENTRICITY":0.00028231,"INCLINATION":97.3928,"RA_OF_ASC_NODE":280.3764,"ARG_OF_PERICENTER":162.1349,"MEAN_ANOMALY":197.9991,"EPHEMERIS_TYPE":0,"NORAD_CAT_ID":62641,"ELEMENT_SET_NO":999,"REV_AT_EPOCH":8363,"BSTAR":0.00018688986,"MEAN_MOTION_DOT":0.00005325,"MEAN_MOTION_DDOT":0},{"OBJECT_NAME":"FLOCK 4G-29","OBJECT_ID":"2025-009AK","EPOCH":"2026-07-18T03:19:08.229216","CLASSIFICATION_TYPE":"U","MEAN_MOTION":15.29890233,"ECCENTRICITY":0.00037172,"INCLINATION":97.4014,"RA_OF_ASC_NODE":280.9768,"ARG_OF_PERICENTER":158.387,"MEAN_ANOMALY":201.7528,"EPHEMERIS_TYPE":0,"NORAD_CAT_ID":62642,"ELEMENT_SET_NO":999,"REV_AT_EPOCH":8363,"BSTAR":0.00015848035,"MEAN_MOTION_DOT":0.0000451,"MEAN_MOTION_DDOT":0},{"OBJECT_NAME":"FLOCK 4G-22","OBJECT_ID":"2025-009AN","EPOCH":"2026-07-18T03:45:57.452544","CLASSIFICATION_TYPE":"U","MEAN_MOTION":15.29805391,"ECCENTRICITY":0.0003231,"INCLINATION":97.3999,"RA_OF_ASC_NODE":281.0291,"ARG_OF_PERICENTER":154.9335,"MEAN_ANOMALY":205.2063,"EPHEMERIS_TYPE":0,"NORAD_CAT_ID":62645,"ELEMENT_SET_NO":999,"REV_AT_EPOCH":8365,"BSTAR":0.00018064693,"MEAN_MOTION_DOT":0.00005138,"MEAN_MOTION_DDOT":0},{"OBJECT_NAME":"FLOCK 4G-25","OBJECT_ID":"2025-009AP","EPOCH":"2026-07-17T11:25:43.749984","CLASSIFICATION_TYPE":"U","MEAN_MOTION":15.30036582,"ECCENTRICITY":0.0002652,"INCLINATION":97.4011,"RA_OF_ASC_NODE":280.4309,"ARG_OF_PERICENTER":157.535,"MEAN_ANOMALY":202.6007,"EPHEMERIS_TYPE":0,"NORAD_CAT_ID":62646,"ELEMENT_SET_NO":999,"REV_AT_EPOCH":8355,"BSTAR":0.00019569,"MEAN_MOTION_DOT":0.00005613,"MEAN_MOTION_DDOT":0}]}
